[{"OBJECT_NAME":"COSMOS 2538","OBJECT_ID":"2019-039D","EPOCH":"2026-03-09T23:22:28.343424","MEAN_MOTION":15.19536029,"ECCENTRICITY":0.00437345,"INCLINATION":97.5929,"RA_OF_ASC_NODE":147.7512,"ARG_OF_PERICENTER":31.8471,"MEAN_ANOMALY":328.5393,"EPHEMERIS_TYPE":0,"CLASSIFICATION_TYPE":"U","NORAD_CAT_ID":44424,"ELEMENT_SET_NO":999,"REV_AT_EPOCH":36483,"BSTAR":0.00035711669,"MEAN_MOTION_DOT":7.713e-5,"MEAN_MOTION_DDOT":0},{"OBJECT_NAME":"STARLINK-30902","OBJECT_ID":"2023-180V","EPOCH":"2026-03-08T08:42:56.560896","MEAN_MOTION":15.27248303,"ECCENTRICITY":0.00016664,"INCLINATION":43.0021,"RA_OF_ASC_NODE":59.988,"ARG_OF_PERICENTER":292.4391,"MEAN_ANOMALY":67.6284,"EPHEMERIS_TYPE":0,"CLASSIFICATION_TYPE":"U","NORAD_CAT_ID":58421,"ELEMENT_SET_NO":999,"REV_AT_EPOCH":12731,"BSTAR":0.0021800837,"MEAN_MOTION_DOT":0.00059609,"MEAN_MOTION_DDOT":0}]
